{
  "type": "FeatureCollection",
  "features": [
    {
      "type": "Feature",
      "properties": {
        "norad_id": 33886,
        "name": "IRIDIUM 33 DEB",
        "group": "iridium-33-debris",
        "lat": 47.32774964466166,
        "lon": 67.85129719868318,
        "alt_km": 776.4094717153648,
        "timestamp": "2025-12-20T14:38:02.354173+00:00",
        "meta_object_name": "IRIDIUM 33 DEB",
        "meta_object_id": "1997-051BF",
        "meta_epoch": "2025-12-20T04:30:59.629824",
        "meta_mean_motion": 14.36060026,
        "meta_eccentricity": 0.00129406,
        "meta_inclination": 86.3824,
        "meta_ra_of_asc_node": 64.0937,
        "meta_arg_of_pericenter": 214.8028,
        "meta_mean_anomaly": 174.7554,
        "meta_ephemeris_type": 0,
        "meta_classification_type": "U",
        "meta_norad_cat_id": 33886,
        "meta_element_set_no": 999,
        "meta_rev_at_epoch": 88159,
        "meta_bstar": 0.00013722788,
        "meta_mean_motion_dot": 4.19e-06,
        "meta_mean_motion_ddot": 0,
        "tle_line1": "1 33886U 97051BF  25354.18819016  .00000419  00000+0  13723-3 0  9995",
        "tle_line2": "2 33886  86.3824  64.0937 0012940 214.8028 174.7554 14.36060026881593"
      },
      "geometry": {
        "type": "Point",
        "coordinates": [
          67.85129719868318,
          47.32774964466166
        ]
      }
    },
    {
      "type": "Feature",
      "properties": {
        "norad_id": 33887,
        "name": "IRIDIUM 33 DEB",
        "group": "iridium-33-debris",
        "lat": 16.729017815681654,
        "lon": 1.113775253488133,
        "alt_km": 772.0327685716793,
        "timestamp": "2025-12-20T14:38:02.354184+00:00",
        "meta_object_name": "IRIDIUM 33 DEB",
        "meta_object_id": "1997-051BG",
        "meta_epoch": "2025-12-20T01:28:45.668352",
        "meta_mean_motion": 14.37227129,
        "meta_eccentricity": 0.00051987,
        "meta_inclination": 86.3041,
        "meta_ra_of_asc_node": 0.2367,
        "meta_arg_of_pericenter": 196.9799,
        "meta_mean_anomaly": 225.7634,
        "meta_ephemeris_type": 0,
        "meta_classification_type": "U",
        "meta_norad_cat_id": 33887,
        "meta_element_set_no": 999,
        "meta_rev_at_epoch": 88270,
        "meta_bstar": 0.00010697181,
        "meta_mean_motion_dot": 3.38e-06,
        "meta_mean_motion_ddot": 0,
        "tle_line1": "1 33887U 97051BG  25354.06163968  .00000338  00000+0  10697-3 0  9998",
        "tle_line2": "2 33887  86.3041   0.2367 0005198 196.9799 225.7634 14.37227129882706"
      },
      "geometry": {
        "type": "Point",
        "coordinates": [
          1.113775253488133,
          16.729017815681654
        ]
      }
    },
    {
      "type": "Feature",
      "properties": {
        "norad_id": 33953,
        "name": "IRIDIUM 33 DEB",
        "group": "iridium-33-debris",
        "lat": 25.195378919475147,
        "lon": 52.068662389636174,
        "alt_km": 699.8107381030759,
        "timestamp": "2025-12-20T14:38:02.354194+00:00",
        "meta_object_name": "IRIDIUM 33 DEB",
        "meta_object_id": "1997-051BN",
        "meta_epoch": "2025-12-20T03:06:09.003168",
        "meta_mean_motion": 14.55388304,
        "meta_eccentricity": 0.00179538,
        "meta_inclination": 86.3841,
        "meta_ra_of_asc_node": 50.5724,
        "meta_arg_of_pericenter": 80.2831,
        "meta_mean_anomaly": 309.4365,
        "meta_ephemeris_type": 0,
        "meta_classification_type": "U",
        "meta_norad_cat_id": 33953,
        "meta_element_set_no": 999,
        "meta_rev_at_epoch": 88411,
        "meta_bstar": 0.00068975836,
        "meta_mean_motion_dot": 3.021e-05,
        "meta_mean_motion_ddot": 0,
        "tle_line1": "1 33953U 97051BN  25354.12927087  .00003021  00000+0  68976-3 0  9994",
        "tle_line2": "2 33953  86.3841  50.5724 0017953  80.2831 309.4365 14.55388304884118"
      },
      "geometry": {
        "type": "Point",
        "coordinates": [
          52.068662389636174,
          25.195378919475147
        ]
      }
    },
    {
      "type": "Feature",
      "properties": {
        "norad_id": 33960,
        "name": "IRIDIUM 33 DEB",
        "group": "iridium-33-debris",
        "lat": -40.74402949773904,
        "lon": -77.43308587551229,
        "alt_km": 618.2031436711113,
        "timestamp": "2025-12-20T14:38:02.354206+00:00",
        "meta_object_name": "IRIDIUM 33 DEB",
        "meta_object_id": "1997-051BV",
        "meta_epoch": "2025-12-18T21:04:17.238720",
        "meta_mean_motion": 14.85489781,
        "meta_eccentricity": 0.00074649,
        "meta_inclination": 86.254,
        "meta_ra_of_asc_node": 286.6192,
        "meta_arg_of_pericenter": 52.1098,
        "meta_mean_anomaly": 12.0352,
        "meta_ephemeris_type": 0,
        "meta_classification_type": "U",
        "meta_norad_cat_id": 33960,
        "meta_element_set_no": 999,
        "meta_rev_at_epoch": 88958,
        "meta_bstar": 0.0022083229,
        "meta_mean_motion_dot": 0.0001912,
        "meta_mean_motion_ddot": 0,
        "tle_line1": "1 33960U 97051BV  25352.87797730  .00019120  00000+0  22083-2 0  9997",
        "tle_line2": "2 33960  86.2540 286.6192 0007464  52.1098  12.0352 14.85489781889584"
      },
      "geometry": {
        "type": "Point",
        "coordinates": [
          -77.43308587551229,
          -40.74402949773904
        ]
      }
    },
    {
      "type": "Feature",
      "properties": {
        "norad_id": 33966,
        "name": "IRIDIUM 33 DEB",
        "group": "iridium-33-debris",
        "lat": -11.319835496794981,
        "lon": 41.92594606830538,
        "alt_km": 737.142264987785,
        "timestamp": "2025-12-20T14:38:02.354216+00:00",
        "meta_object_name": "IRIDIUM 33 DEB",
        "meta_object_id": "1997-051CB",
        "meta_epoch": "2025-12-20T03:11:01.812768",
        "meta_mean_motion": 14.49620401,
        "meta_eccentricity": 0.00082512,
        "meta_inclination": 86.3914,
        "meta_ra_of_asc_node": 42.8545,
        "meta_arg_of_pericenter": 164.7802,
        "meta_mean_anomaly": 215.846,
        "meta_ephemeris_type": 0,
        "meta_classification_type": "U",
        "meta_norad_cat_id": 33966,
        "meta_element_set_no": 999,
        "meta_rev_at_epoch": 88549,
        "meta_bstar": 0.00034832746,
        "meta_mean_motion_dot": 1.358e-05,
        "meta_mean_motion_ddot": 0,
        "tle_line1": "1 33966U 97051CB  25354.13265987  .00001358  00000+0  34833-3 0  9999",
        "tle_line2": "2 33966  86.3914  42.8545 0008251 164.7802 215.8460 14.49620401885493"
      },
      "geometry": {
        "type": "Point",
        "coordinates": [
          41.92594606830538,
          -11.319835496794981
        ]
      }
    },
    {
      "type": "Feature",
      "properties": {
        "norad_id": 34071,
        "name": "IRIDIUM 33 DEB",
        "group": "iridium-33-debris",
        "lat": 51.290438770160335,
        "lon": 18.982319107076602,
        "alt_km": 716.8232270155559,
        "timestamp": "2025-12-20T14:38:02.354226+00:00",
        "meta_object_name": "IRIDIUM 33 DEB",
        "meta_object_id": "1997-051CE",
        "meta_epoch": "2025-12-20T02:48:00.187776",
        "meta_mean_motion": 14.49494127,
        "meta_eccentricity": 0.00099446,
        "meta_inclination": 86.3449,
        "meta_ra_of_asc_node": 14.6218,
        "meta_arg_of_pericenter": 87.7011,
        "meta_mean_anomaly": 272.5331,
        "meta_ephemeris_type": 0,
        "meta_classification_type": "U",
        "meta_norad_cat_id": 34071,
        "meta_element_set_no": 999,
        "meta_rev_at_epoch": 88441,
        "meta_bstar": 0.00040343634,
        "meta_mean_motion_dot": 1.566e-05,
        "meta_mean_motion_ddot": 0,
        "tle_line1": "1 34071U 97051CE  25354.11666884  .00001566  00000+0  40344-3 0  9991",
        "tle_line2": "2 34071  86.3449  14.6218 0009944  87.7011 272.5331 14.49494127884416"
      },
      "geometry": {
        "type": "Point",
        "coordinates": [
          18.982319107076602,
          51.290438770160335
        ]
      }
    },
    {
      "type": "Feature",
      "properties": {
        "norad_id": 34077,
        "name": "IRIDIUM 33 DEB",
        "group": "iridium-33-debris",
        "lat": -30.566610811375956,
        "lon": 45.90105626009112,
        "alt_km": 678.748389673874,
        "timestamp": "2025-12-20T14:38:02.354236+00:00",
        "meta_object_name": "IRIDIUM 33 DEB",
        "meta_object_id": "1997-051CL",
        "meta_epoch": "2025-12-20T03:25:48.308736",
        "meta_mean_motion": 14.64909698,
        "meta_eccentricity": 0.00093578,
        "meta_inclination": 86.3852,
        "meta_ra_of_asc_node": 48.2464,
        "meta_arg_of_pericenter": 15.7407,
        "meta_mean_anomaly": 13.5022,
        "meta_ephemeris_type": 0,
        "meta_classification_type": "U",
        "meta_norad_cat_id": 34077,
        "meta_element_set_no": 999,
        "meta_rev_at_epoch": 88441,
        "meta_bstar": 0.00069119248,
        "meta_mean_motion_dot": 3.719e-05,
        "meta_mean_motion_ddot": 0,
        "tle_line1": "1 34077U 97051CL  25354.14292024  .00003719  00000+0  69119-3 0  9994",
        "tle_line2": "2 34077  86.3852  48.2464 0009357  15.7407  13.5022 14.64909698884415"
      },
      "geometry": {
        "type": "Point",
        "coordinates": [
          45.90105626009112,
          -30.566610811375956
        ]
      }
    }
  ]
}